BEESAT-4                
1 41619U 16040W   21209.91169395  .00002864  00000-0  11488-3 0  9994
2 41619  97.2664 264.8399 0010756 175.3053 184.8288 15.25735169271330
CAS-2T & KS-1Q          
1 41847U 16066G   21209.87114326  .00000235  00000-0  44509-4 0  9995
2 41847  98.5983 269.1666 0366334  96.7707 267.5300 14.38217657247836
NAYIF-1 (EO-88)         
1 42017U 17008BX  21209.67871595  .00003108  00000-0  11498-3 0  9990
2 42017  97.3132 276.5416 0004907 338.1435  21.9595 15.28420662247559
ZHUHAI-1 02 (CAS-4B)    
1 42759U 17034B   21209.70890213  .00000798  00000-0  61188-4 0  9998
2 42759  43.0185 314.2627 0007738  53.3684 100.8822 15.10287805227389
ZHUHAI-1 01 (CAS-4A)    
1 42761U 17034D   21209.69593762  .00000852  00000-0  64304-4 0  9992
2 42761  43.0187 313.3580 0008105  55.5052  90.3313 15.10376108227387
MAX VALIER SAT          
1 42778U 17036P   21209.87462888  .00001854  00000-0  79829-4 0  9997
2 42778  97.2521 257.1238 0012762  37.9028 322.3106 15.23758506227595
RADFXSAT (FOX-1B)       
1 43017U 17073E   21209.72196549  .00000613  00000-0  52229-4 0  9994
2 43017  97.7028 112.0713 0255004 165.4193 195.4558 14.79615016199220
FOX-1D (AO-92)          
1 43137U 18004AC  21209.92400771  .00002160  00000-0  88264-4 0  9996
2 43137  97.4046 283.5323 0010323  70.0842 290.1507 15.25419729196988
DIWATA-2B               
1 43678U 18084H   21209.83945619  .00000084  00000-0  14059-4 0  9993
2 43678  97.9288 335.3432 0008581 276.0938  83.9319 14.91767130149605
ES'HAIL 2               
1 43700U 18090A   21209.83585378  .00000134  00000-0  00000-0 0  9991
2 43700   0.0155  79.6576 0001948  96.0518  97.6923  1.00271428  9783
FOX-1CLIFF (AO-95)      
1 43770U 18099N   21209.73680184  .00000886  00000-0  85325-4 0  9998
2 43770  97.6630 279.0091 0012883 280.3044  79.6724 14.95369934144620
ITASAT 1                
1 43786U 18099AE  21209.78178852  .00000075  00000-0  11868-4 0  9995
2 43786  97.6649 279.7602 0013687 272.7674  87.1981 14.95656893144665
JY1SAT (JO-97)          
1 43803U 18099AX  21209.73872243  .00000964  00000-0  91107-4 0  9996
2 43803  97.6612 279.4650 0013422 272.1494  87.8190 14.95913568144660
UWE-4                   
1 43880U 18111E   21209.69464206  .00001149  00000-0  10500-3 0  9990
2 43880  97.6839 116.7200 0011325 334.1600  25.9054 14.96923585141253
NEXUS (FO-99)           
1 43937U 19003F   21209.83387662  .00002457  00000-0  97862-4 0  9990
2 43937  97.1730 251.3556 0021814 222.2257 137.7303 15.25936983140572
PSAT2 (NO-104)          
1 44354U 19036R   21209.30094003  .00024451  00000-0  31874-3 0  9994
2 44354  28.5268 214.4358 0319667 359.4070   0.6121 15.15022057115173
BRICSAT2 (NO-103)       
1 44355U 19036S   21209.91829819  .00044240 -53290-5  44614-3 0  9992
2 44355  28.5245 158.1034 0250992  91.1603 271.7759 15.33106238115791
JAISAT-1                
1 44419U 19038F   21209.88426200  .00001456  00000-0  83807-4 0  9993
2 44419  97.5909 174.4420 0021263 165.0236 195.1629 15.13886622114069
DUCHIFAT-3              
1 44854U 19089C   21209.74464264  .00000565  00000-0  51428-4 0  9993
2 44854  36.9639 216.4385 0006985 111.3897 248.7590 14.99551887 89302
CAS-6 (TO-108)          
1 44881U 19093C   21209.87061538  .00000107  00000-0  20350-4 0  9991
2 44881  97.9239 288.2475 0015730 153.6199 206.5808 14.81466632 86860
RS-44 & BREEZE-KM R/B   
1 44909U 19096E   21209.90740352  .00000010  00000-0 -11224-5 0  9992
2 44909  82.5200  85.2711 0217509 356.5060   3.4509 12.79710948 74121
ORBITAL FACTORY 2 (OF-2)
1 45113U 19071C   21209.39641498  .00004131  00000-0  12644-3 0  9999
2 45113  51.6404 198.9518 0012436  81.2020 279.0371 15.36064983 83461
HUSKYSAT-1 (HO-107)     
1 45119U 19071J   21209.34231967  .00003134  00000-0  98570-4 0  9991
2 45119  51.6402 198.5847 0011879  77.6459 282.5853 15.36069927 83457
BY70-2                  
1 45857U 20042B   21209.89980495  .00001520  00000-0  22198-3 0  9996
2 45857  97.9840 285.2186 0012780  84.2147 276.0500 14.77147958 57661
SALSAT                  
1 46495U 20068K   21209.92406944 -.00000211  00000-0 -10888-4 0  9991
2 46495  97.6930 147.1780 0015865 296.5766  63.3832 15.03489198 45561
BY70-3                  
1 46839U 20079N   21209.81209794  .00003835  00000-0  11891-3 0  9994
2 46839  97.2391 282.8506 0008652  65.4211  42.8269 15.33982744 40544
RADFXSAT-2 (AO-109)     
1 47311U 21002C   21209.95001671  .00002008  00000-0  98062-4 0  9993
2 47311  60.6852 135.8417 0040460  69.4385 291.1035 15.21787100 29186
UVSQ-SAT                
1 47438U 21006AB  21209.71125241  .00001226  00000-0  72598-4 0  9998
2 47438  97.4847 270.1930 0011556 321.6350  38.4059 15.13237221 28294
DIY-1 (ARDUIQUBE)       
1 47963U 21022AH  21209.71865481  .00002494  00000-0  16799-3 0  9994
2 47963  97.5548 111.3205 0019914 158.3319 201.8755 15.07444437 18114
